CCSDS_OMM_VERS = 2.0
CREATION_DATE  = 
ORIGINATOR     = 

OBJECT_NAME    = STARLINK-35944
OBJECT_ID      = 2025-286D
CENTER_NAME    = EARTH
REF_FRAME      = TEME
TIME_SYSTEM    = UTC
MEAN_ELEMENT_THEORY = SGP/SGP4

EPOCH          = 2025-12-22T22:00:03.000096
MEAN_MOTION    = 15.70976331
ECCENTRICITY   = .00012384
INCLINATION    = 53.1593
RA_OF_ASC_NODE = 359.4842
ARG_OF_PERICENTER = 110.0677
MEAN_ANOMALY   = 127.4353

EPHEMERIS_TYPE = 0
CLASSIFICATION_TYPE = U
NORAD_CAT_ID   = 66928
ELEMENT_SET_NO = 999
REV_AT_EPOCH   = 362
BSTAR          = -.17065208E-1
MEAN_MOTION_DOT = -.1932196E-1
MEAN_MOTION_DDOT = 0

CCSDS_OMM_VERS = 2.0
CREATION_DATE  = 
ORIGINATOR     = 

OBJECT_NAME    = STARLINK-36169
OBJECT_ID      = 2025-286E
CENTER_NAME    = EARTH
REF_FRAME      = TEME
TIME_SYSTEM    = UTC
MEAN_ELEMENT_THEORY = SGP/SGP4

EPOCH          = 2025-12-22T22:00:03.000096
MEAN_MOTION    = 15.70975428
ECCENTRICITY   = .00012357
INCLINATION    = 53.1592
RA_OF_ASC_NODE = 359.4720
ARG_OF_PERICENTER = 102.5805
MEAN_ANOMALY   = 140.6737

EPHEMERIS_TYPE = 0
CLASSIFICATION_TYPE = U
NORAD_CAT_ID   = 66929
ELEMENT_SET_NO = 999
REV_AT_EPOCH   = 362
BSTAR          = -.17052694E-1
MEAN_MOTION_DOT = -.1930874E-1
MEAN_MOTION_DDOT = 0

CCSDS_OMM_VERS = 2.0
CREATION_DATE  = 
ORIGINATOR     = 

OBJECT_NAME    = STARLINK-36206
OBJECT_ID      = 2025-286F
CENTER_NAME    = EARTH
REF_FRAME      = TEME
TIME_SYSTEM    = UTC
MEAN_ELEMENT_THEORY = SGP/SGP4

EPOCH          = 2025-12-22T22:00:03.000096
MEAN_MOTION    = 15.70978278
ECCENTRICITY   = .00010371
INCLINATION    = 53.1592
RA_OF_ASC_NODE = 359.4682
ARG_OF_PERICENTER = 103.4329
MEAN_ANOMALY   = 141.7376

EPHEMERIS_TYPE = 0
CLASSIFICATION_TYPE = U
NORAD_CAT_ID   = 66930
ELEMENT_SET_NO = 999
REV_AT_EPOCH   = 362
BSTAR          = -.17106099E-1
MEAN_MOTION_DOT = -.1936288E-1
MEAN_MOTION_DDOT = 0

CCSDS_OMM_VERS = 2.0
CREATION_DATE  = 
ORIGINATOR     = 

OBJECT_NAME    = STARLINK-36130
OBJECT_ID      = 2025-286G
CENTER_NAME    = EARTH
REF_FRAME      = TEME
TIME_SYSTEM    = UTC
MEAN_ELEMENT_THEORY = SGP/SGP4

EPOCH          = 2025-12-22T22:00:03.000096
MEAN_MOTION    = 15.70975631
ECCENTRICITY   = .00012311
INCLINATION    = 53.1591
RA_OF_ASC_NODE = 359.4642
ARG_OF_PERICENTER = 104.7164
MEAN_ANOMALY   = 142.3696

EPHEMERIS_TYPE = 0
CLASSIFICATION_TYPE = U
NORAD_CAT_ID   = 66931
ELEMENT_SET_NO = 999
REV_AT_EPOCH   = 362
BSTAR          = -.17037556E-1
MEAN_MOTION_DOT = -.1929367E-1
MEAN_MOTION_DDOT = 0

CCSDS_OMM_VERS = 2.0
CREATION_DATE  = 
ORIGINATOR     = 

OBJECT_NAME    = STARLINK-36177
OBJECT_ID      = 2025-286H
CENTER_NAME    = EARTH
REF_FRAME      = TEME
TIME_SYSTEM    = UTC
MEAN_ELEMENT_THEORY = SGP/SGP4

EPOCH          = 2025-12-22T22:00:03.000096
MEAN_MOTION    = 15.70976742
ECCENTRICITY   = .00012433
INCLINATION    = 53.1592
RA_OF_ASC_NODE = 359.4600
ARG_OF_PERICENTER = 100.0167
MEAN_ANOMALY   = 148.9871

EPHEMERIS_TYPE = 0
CLASSIFICATION_TYPE = U
NORAD_CAT_ID   = 66932
ELEMENT_SET_NO = 999
REV_AT_EPOCH   = 362
BSTAR          = -.17072547E-1
MEAN_MOTION_DOT = -.1932966E-1
MEAN_MOTION_DDOT = 0

CCSDS_OMM_VERS = 2.0
CREATION_DATE  = 
ORIGINATOR     = 

OBJECT_NAME    = STARLINK-36157
OBJECT_ID      = 2025-286J
CENTER_NAME    = EARTH
REF_FRAME      = TEME
TIME_SYSTEM    = UTC
MEAN_ELEMENT_THEORY = SGP/SGP4

EPOCH          = 2025-12-22T22:00:03.000096
MEAN_MOTION    = 15.70977784
ECCENTRICITY   = .00010836
INCLINATION    = 53.1591
RA_OF_ASC_NODE = 359.4563
ARG_OF_PERICENTER = 101.6203
MEAN_ANOMALY   = 149.3000

EPHEMERIS_TYPE = 0
CLASSIFICATION_TYPE = U
NORAD_CAT_ID   = 66933
ELEMENT_SET_NO = 999
REV_AT_EPOCH   = 362
BSTAR          = -.17084853E-1
MEAN_MOTION_DOT = -.1934157E-1
MEAN_MOTION_DDOT = 0

CCSDS_OMM_VERS = 2.0
CREATION_DATE  = 
ORIGINATOR     = 

OBJECT_NAME    = STARLINK-36153
OBJECT_ID      = 2025-286K
CENTER_NAME    = EARTH
REF_FRAME      = TEME
TIME_SYSTEM    = UTC
MEAN_ELEMENT_THEORY = SGP/SGP4

EPOCH          = 2025-12-22T22:00:03.000096
MEAN_MOTION    = 15.70974673
ECCENTRICITY   = .0001153
INCLINATION    = 53.1592
RA_OF_ASC_NODE = 359.4519
ARG_OF_PERICENTER = 104.8896
MEAN_ANOMALY   = 147.9482

EPHEMERIS_TYPE = 0
CLASSIFICATION_TYPE = U
NORAD_CAT_ID   = 66934
ELEMENT_SET_NO = 999
REV_AT_EPOCH   = 362
BSTAR          = -.17029818E-1
MEAN_MOTION_DOT = -.1928463E-1
MEAN_MOTION_DDOT = 0

CCSDS_OMM_VERS = 2.0
CREATION_DATE  = 
ORIGINATOR     = 

OBJECT_NAME    = STARLINK-36127
OBJECT_ID      = 2025-286L
CENTER_NAME    = EARTH
REF_FRAME      = TEME
TIME_SYSTEM    = UTC
MEAN_ELEMENT_THEORY = SGP/SGP4

EPOCH          = 2025-12-22T22:00:03.000096
MEAN_MOTION    = 15.70974392
ECCENTRICITY   = .00011438
INCLINATION    = 53.1590
RA_OF_ASC_NODE = 359.4480
ARG_OF_PERICENTER = 99.2974
MEAN_ANOMALY   = 155.4591

EPHEMERIS_TYPE = 0
CLASSIFICATION_TYPE = U
NORAD_CAT_ID   = 66935
ELEMENT_SET_NO = 999
REV_AT_EPOCH   = 362
BSTAR          = -.17054121E-1
MEAN_MOTION_DOT = -.1930874E-1
MEAN_MOTION_DDOT = 0

CCSDS_OMM_VERS = 2.0
CREATION_DATE  = 
ORIGINATOR     = 

OBJECT_NAME    = STARLINK-36160
OBJECT_ID      = 2025-286M
CENTER_NAME    = EARTH
REF_FRAME      = TEME
TIME_SYSTEM    = UTC
MEAN_ELEMENT_THEORY = SGP/SGP4

EPOCH          = 2025-12-22T22:00:03.000096
MEAN_MOTION    = 15.70982748
ECCENTRICITY   = .00010639
INCLINATION    = 53.1591
RA_OF_ASC_NODE = 359.4444
ARG_OF_PERICENTER = 105.2345
MEAN_ANOMALY   = 151.4361

EPHEMERIS_TYPE = 0
CLASSIFICATION_TYPE = U
NORAD_CAT_ID   = 66936
ELEMENT_SET_NO = 999
REV_AT_EPOCH   = 362
BSTAR          = -.17165459E-1
MEAN_MOTION_DOT = -.194258E-1
MEAN_MOTION_DDOT = 0

CCSDS_OMM_VERS = 2.0
CREATION_DATE  = 
ORIGINATOR     = 

OBJECT_NAME    = STARLINK-36165
OBJECT_ID      = 2025-286N
CENTER_NAME    = EARTH
REF_FRAME      = TEME
TIME_SYSTEM    = UTC
MEAN_ELEMENT_THEORY = SGP/SGP4

EPOCH          = 2025-12-22T22:00:03.000096
MEAN_MOTION    = 15.70978415
ECCENTRICITY   = .00010941
INCLINATION    = 53.1591
RA_OF_ASC_NODE = 359.4402
ARG_OF_PERICENTER = 100.9719
MEAN_ANOMALY   = 157.6150

EPHEMERIS_TYPE = 0
CLASSIFICATION_TYPE = U
NORAD_CAT_ID   = 66937
ELEMENT_SET_NO = 999
REV_AT_EPOCH   = 362
BSTAR          = -.17088533E-1
MEAN_MOTION_DOT = -.1934579E-1
MEAN_MOTION_DDOT = 0

CCSDS_OMM_VERS = 2.0
CREATION_DATE  = 
ORIGINATOR     = 

OBJECT_NAME    = STARLINK-36155
OBJECT_ID      = 2025-286P
CENTER_NAME    = EARTH
REF_FRAME      = TEME
TIME_SYSTEM    = UTC
MEAN_ELEMENT_THEORY = SGP/SGP4

EPOCH          = 2025-12-22T22:00:03.000096
MEAN_MOTION    = 15.70976134
ECCENTRICITY   = .00010069
INCLINATION    = 53.1590
RA_OF_ASC_NODE = 359.4356
ARG_OF_PERICENTER = 108.3253
MEAN_ANOMALY   = 152.1788

EPHEMERIS_TYPE = 0
CLASSIFICATION_TYPE = U
NORAD_CAT_ID   = 66938
ELEMENT_SET_NO = 999
REV_AT_EPOCH   = 362
BSTAR          = -.17050676E-1
MEAN_MOTION_DOT = -.1930554E-1
MEAN_MOTION_DDOT = 0

CCSDS_OMM_VERS = 2.0
CREATION_DATE  = 
ORIGINATOR     = 

OBJECT_NAME    = STARLINK-36154
OBJECT_ID      = 2025-286Q
CENTER_NAME    = EARTH
REF_FRAME      = TEME
TIME_SYSTEM    = UTC
MEAN_ELEMENT_THEORY = SGP/SGP4

EPOCH          = 2025-12-22T22:00:03.000096
MEAN_MOTION    = 15.70981023
ECCENTRICITY   = .00010534
INCLINATION    = 53.1590
RA_OF_ASC_NODE = 359.4276
ARG_OF_PERICENTER = 104.4103
MEAN_ANOMALY   = 159.9266

EPHEMERIS_TYPE = 0
CLASSIFICATION_TYPE = U
NORAD_CAT_ID   = 66939
ELEMENT_SET_NO = 999
REV_AT_EPOCH   = 362
BSTAR          = -.17123565E-1
MEAN_MOTION_DOT = -.193825E-1
MEAN_MOTION_DDOT = 0

