STARLINK-35944          
1 66928U 25286D   25356.91670139 -.01932196  00000+0 -17065-1 0  9993
2 66928  53.1593 359.4842 0001238 110.0677 127.4353 15.70976331  3628
STARLINK-36169          
1 66929U 25286E   25356.91670139 -.01930874  00000+0 -17053-1 0  9992
2 66929  53.1592 359.4720 0001235 102.5805 140.6737 15.70975428  3628
STARLINK-36206          
1 66930U 25286F   25356.91670139 -.01936288  00000+0 -17106-1 0  9998
2 66930  53.1592 359.4682 0001037 103.4329 141.7376 15.70978278  3625
STARLINK-36130          
1 66931U 25286G   25356.91670139 -.01929367  00000+0 -17038-1 0  9993
2 66931  53.1591 359.4642 0001231 104.7164 142.3696 15.70975631  3620
STARLINK-36177          
1 66932U 25286H   25356.91670139 -.01932966  00000+0 -17073-1 0  9992
2 66932  53.1592 359.4600 0001243 100.0167 148.9871 15.70976742  3622
STARLINK-36157          
1 66933U 25286J   25356.91670139 -.01934157  00000+0 -17085-1 0  9990
2 66933  53.1591 359.4563 0001083 101.6203 149.3000 15.70977784  3626
STARLINK-36153          
1 66934U 25286K   25356.91670139 -.01928463  00000+0 -17030-1 0  9994
2 66934  53.1592 359.4519 0001153 104.8896 147.9482 15.70974673  3622
STARLINK-36127          
1 66935U 25286L   25356.91670139 -.01930874  00000+0 -17054-1 0  9990
2 66935  53.1590 359.4480 0001143  99.2974 155.4591 15.70974392  3624
STARLINK-36160          
1 66936U 25286M   25356.91670139 -.01942580  00000+0 -17165-1 0  9991
2 66936  53.1591 359.4444 0001063 105.2345 151.4361 15.70982748  3622
STARLINK-36165          
1 66937U 25286N   25356.91670139 -.01934579  00000+0 -17089-1 0  9996
2 66937  53.1591 359.4402 0001094 100.9719 157.6150 15.70978415  3628
STARLINK-36155          
1 66938U 25286P   25356.91670139 -.01930554  00000+0 -17051-1 0  9995
2 66938  53.1590 359.4356 0001006 108.3253 152.1788 15.70976134  3627
STARLINK-36154          
1 66939U 25286Q   25356.91670139 -.01938250  00000+0 -17124-1 0  9998
2 66939  53.1590 359.4276 0001053 104.4103 159.9266 15.70981023  3621
